0 METEOR 2-6 DEB
1 28986U 80073C   13283.67014195  .00002213  00000-0  10538-2 0  5422
2 28986 081.2198 274.6923 0031004 250.7089 109.0790 14.18814358450699
0 METEOR 2-6 DEB
1 28986U 80073C   13285.64472520  .00002288  00000-0  10895-2 0  5430
2 28986 081.2211 272.7376 0031250 245.0676 114.7471 14.18824503450971
0 METEOR 2-6 DEB
1 28986U 80073C   13287.26668857  .00002318  00000-0  11036-2 0  5443
2 28986 081.2210 271.1313 0031515 241.2620 118.5389 14.18832527451207
0 METEOR 2-6 DEB
1 28986U 80073C   13289.24124852  .00002735  00000-0  13023-2 0  5457
2 28986 081.2227 269.1690 0032391 233.8601 126.0496 14.18848191451486
0 METEOR 2-6 DEB
1 28986U 80073C   13290.29901806  .00002916  00000-0  13891-2 0  5461
2 28986 081.2200 268.1240 0031241 230.9100 128.9266 14.18856374451637
0 METEOR 2-6 DEB
1 28986U 80073C   13290.65161373  .00003038  00000-0  14477-2 0  5476
2 28986 081.2173 267.7723 0030732 225.6944 134.1810 14.18859693451684
0 METEOR 2-6 DEB
1 28986U 80073C   13290.65162132  .00002712  00000-0  12978-2 0  5472
2 28986 081.2177 267.7732 0030467 228.6733 131.2294 14.18860160451687
0 METEOR 2-6 DEB
1 28986U 80073C   13292.20302058  .00003260  00000-0  15541-2 0  5487
2 28986 081.2160 266.2407 0029738 224.5558 135.3299 14.18872467451909
0 METEOR 2-6 DEB
1 28986U 80073C   13293.26079075  .00003356  00000-0  15998-2 0  5497
2 28986 081.2144 265.1943 0028954 224.3025 135.5792 14.18880508452052
0 METEOR 2-6 DEB
1 28986U 80073C   13295.65838326  .00003954  00000-0  18832-2 0  5500
2 28986 081.2192 262.8177 0031931 212.8263 147.2184 14.18905459452398
